[{"OBJECT_NAME":"CUBESX-HSE 3 (RS42S)","OBJECT_ID":"2023-091N","EPOCH":"2026-03-09T22:57:25.321248","MEAN_MOTION":15.286147,"ECCENTRICITY":0.00127191,"INCLINATION":97.5203,"RA_OF_ASC_NODE":133.4295,"ARG_OF_PERICENTER":86.5376,"MEAN_ANOMALY":273.7318,"EPHEMERIS_TYPE":0,"CLASSIFICATION_TYPE":"U","NORAD_CAT_ID":57178,"ELEMENT_SET_NO":999,"REV_AT_EPOCH":14925,"BSTAR":0.00059055694,"MEAN_MOTION_DOT":0.00016417,"MEAN_MOTION_DDOT":0},{"OBJECT_NAME":"BANDWAGON-4 OBJECT P","OBJECT_ID":"2025-248P","EPOCH":"2026-03-08T23:32:23.805312","MEAN_MOTION":15.24098352,"ECCENTRICITY":0.00120788,"INCLINATION":45.4037,"RA_OF_ASC_NODE":295.4322,"ARG_OF_PERICENTER":209.3167,"MEAN_ANOMALY":150.7044,"EPHEMERIS_TYPE":0,"CLASSIFICATION_TYPE":"U","NORAD_CAT_ID":66306,"ELEMENT_SET_NO":999,"REV_AT_EPOCH":1929,"BSTAR":0.00092291021,"MEAN_MOTION_DOT":0.00022647,"MEAN_MOTION_DDOT":0}]
